SL-3 R/B                
1 13154U 82039B   25306.46536050  .00002778  00000+0  17121-3 0  9999
2 13154  81.1832   2.3974 0032747  22.9509 337.3170 15.09199823362444
SL-3 R/B                
1 13403U 82079B   25306.47929300  .00005011  00000+0  21052-3 0  9996
2 13403  81.1482 343.1020 0024718 233.9043 125.9901 15.22963817358328
SL-14 R/B               
1 13553U 82092B   25306.37020097  .00000803  00000+0  87806-4 0  9995
2 13553  82.5665 260.4644 0020682   8.4269 106.4502 14.86482968310013
SL-3 R/B                
1 13819U 83010B   25305.58482479  .00012923  00000+0  30071-3 0  9996
2 13819  81.1042 158.7966 0018205 129.9393 230.3453 15.41991468338174
SL-3 R/B                
1 14208U 83075B   25306.45011815  .00011669  00000+0  34382-3 0  9994
2 14208  97.6100 301.6174 0022241 329.0513  30.9418 15.34954596310613
COSMOS 1536             
1 14699U 84013A   25306.31217671  .00007691  00000+0  33654-3 0  9995
2 14699  82.5466 234.2295 0016100  18.2607 341.9203 15.21775796253238
SL-14 R/B               
1 14820U 84027B   25306.41882762  .00000573  00000+0  62925-4 0  9992
2 14820  82.5441   4.3665 0018936  39.0719 321.1861 14.85812305228732
SL-8 R/B                
1 15483U 85006B   25306.53254094  .00000331  00000+0  11856-3 0  9998
2 15483  74.0429 135.1075 0017476  80.8789 342.4319 14.37684317135757
SL-12 R/B(2)            
1 15772U 85042D   25306.51552242  .00000056  00000+0  46726-4 0  9992
2 15772  71.1095 356.3999 0036778 320.6373 143.9732 14.21932556 96312
SL-14 R/B               
1 15945U 85069B   25306.50935147  .00000603  00000+0  65750-4 0  9997
2 15945  82.5252 144.5259 0017345 252.5819 107.3502 14.86253248153945
SL-16 R/B               
1 16182U 85097B   25306.46131233 -.00000010  00000+0  18974-4 0  9990
2 16182  71.0044  48.3977 0005135  89.7106 342.6939 14.16576721 69213
SL-14 R/B               
1 16496U 86006B   25306.44980723  .00000745  00000+0  77031-4 0  9996
2 16496  82.5299  19.4549 0076154 335.5511  24.2099 14.86588201130307
