CCSDS_OMM_VERS = 2.0
CREATION_DATE  = 
ORIGINATOR     = 

OBJECT_NAME    = SL-3 R/B
OBJECT_ID      = 1982-039B
CENTER_NAME    = EARTH
REF_FRAME      = TEME
TIME_SYSTEM    = UTC
MEAN_ELEMENT_THEORY = SGP/SGP4

EPOCH          = 2025-11-02T11:10:07.147200
MEAN_MOTION    = 15.09199823
ECCENTRICITY   = .0032747
INCLINATION    = 81.1832
RA_OF_ASC_NODE = 2.3974
ARG_OF_PERICENTER = 22.9509
MEAN_ANOMALY   = 337.3170

EPHEMERIS_TYPE = 0
CLASSIFICATION_TYPE = U
NORAD_CAT_ID   = 13154
ELEMENT_SET_NO = 999
REV_AT_EPOCH   = 36244
BSTAR          = .17121E-3
MEAN_MOTION_DOT = .2778E-4
MEAN_MOTION_DDOT = 0

CCSDS_OMM_VERS = 2.0
CREATION_DATE  = 
ORIGINATOR     = 

OBJECT_NAME    = SL-3 R/B
OBJECT_ID      = 1982-079B
CENTER_NAME    = EARTH
REF_FRAME      = TEME
TIME_SYSTEM    = UTC
MEAN_ELEMENT_THEORY = SGP/SGP4

EPOCH          = 2025-11-02T11:30:10.915200
MEAN_MOTION    = 15.22963817
ECCENTRICITY   = .0024718
INCLINATION    = 81.1482
RA_OF_ASC_NODE = 343.1020
ARG_OF_PERICENTER = 233.9043
MEAN_ANOMALY   = 125.9901

EPHEMERIS_TYPE = 0
CLASSIFICATION_TYPE = U
NORAD_CAT_ID   = 13403
ELEMENT_SET_NO = 999
REV_AT_EPOCH   = 35832
BSTAR          = .21052E-3
MEAN_MOTION_DOT = .5011E-4
MEAN_MOTION_DDOT = 0

CCSDS_OMM_VERS = 2.0
CREATION_DATE  = 
ORIGINATOR     = 

OBJECT_NAME    = SL-14 R/B
OBJECT_ID      = 1982-092B
CENTER_NAME    = EARTH
REF_FRAME      = TEME
TIME_SYSTEM    = UTC
MEAN_ELEMENT_THEORY = SGP/SGP4

EPOCH          = 2025-11-02T08:53:05.363808
MEAN_MOTION    = 14.86482968
ECCENTRICITY   = .0020682
INCLINATION    = 82.5665
RA_OF_ASC_NODE = 260.4644
ARG_OF_PERICENTER = 8.4269
MEAN_ANOMALY   = 106.4502

EPHEMERIS_TYPE = 0
CLASSIFICATION_TYPE = U
NORAD_CAT_ID   = 13553
ELEMENT_SET_NO = 999
REV_AT_EPOCH   = 31001
BSTAR          = .87806E-4
MEAN_MOTION_DOT = .803E-5
MEAN_MOTION_DDOT = 0

CCSDS_OMM_VERS = 2.0
CREATION_DATE  = 
ORIGINATOR     = 

OBJECT_NAME    = SL-3 R/B
OBJECT_ID      = 1983-010B
CENTER_NAME    = EARTH
REF_FRAME      = TEME
TIME_SYSTEM    = UTC
MEAN_ELEMENT_THEORY = SGP/SGP4

EPOCH          = 2025-11-01T14:02:08.861856
MEAN_MOTION    = 15.41991468
ECCENTRICITY   = .00182056
INCLINATION    = 81.1042
RA_OF_ASC_NODE = 158.7966
ARG_OF_PERICENTER = 129.9393
MEAN_ANOMALY   = 230.3453

EPHEMERIS_TYPE = 0
CLASSIFICATION_TYPE = U
NORAD_CAT_ID   = 13819
ELEMENT_SET_NO = 999
REV_AT_EPOCH   = 33817
BSTAR          = .30071033E-3
MEAN_MOTION_DOT = .12923E-3
MEAN_MOTION_DDOT = 0

CCSDS_OMM_VERS = 2.0
CREATION_DATE  = 
ORIGINATOR     = 

OBJECT_NAME    = SL-3 R/B
OBJECT_ID      = 1983-075B
CENTER_NAME    = EARTH
REF_FRAME      = TEME
TIME_SYSTEM    = UTC
MEAN_ELEMENT_THEORY = SGP/SGP4

EPOCH          = 2025-11-02T10:48:10.208160
MEAN_MOTION    = 15.34954596
ECCENTRICITY   = .0022241
INCLINATION    = 97.6100
RA_OF_ASC_NODE = 301.6174
ARG_OF_PERICENTER = 329.0513
MEAN_ANOMALY   = 30.9418

EPHEMERIS_TYPE = 0
CLASSIFICATION_TYPE = U
NORAD_CAT_ID   = 14208
ELEMENT_SET_NO = 999
REV_AT_EPOCH   = 31061
BSTAR          = .34382E-3
MEAN_MOTION_DOT = .11669E-3
MEAN_MOTION_DDOT = 0

CCSDS_OMM_VERS = 2.0
CREATION_DATE  = 
ORIGINATOR     = 

OBJECT_NAME    = COSMOS 1536
OBJECT_ID      = 1984-013A
CENTER_NAME    = EARTH
REF_FRAME      = TEME
TIME_SYSTEM    = UTC
MEAN_ELEMENT_THEORY = SGP/SGP4

EPOCH          = 2025-11-02T07:29:32.067744
MEAN_MOTION    = 15.21775796
ECCENTRICITY   = .00161
INCLINATION    = 82.5466
RA_OF_ASC_NODE = 234.2295
ARG_OF_PERICENTER = 18.2607
MEAN_ANOMALY   = 341.9203

EPHEMERIS_TYPE = 0
CLASSIFICATION_TYPE = U
NORAD_CAT_ID   = 14699
ELEMENT_SET_NO = 999
REV_AT_EPOCH   = 25323
BSTAR          = .33654E-3
MEAN_MOTION_DOT = .7691E-4
MEAN_MOTION_DDOT = 0

CCSDS_OMM_VERS = 2.0
CREATION_DATE  = 
ORIGINATOR     = 

OBJECT_NAME    = SL-14 R/B
OBJECT_ID      = 1984-027B
CENTER_NAME    = EARTH
REF_FRAME      = TEME
TIME_SYSTEM    = UTC
MEAN_ELEMENT_THEORY = SGP/SGP4

EPOCH          = 2025-11-02T10:03:06.706368
MEAN_MOTION    = 14.85812305
ECCENTRICITY   = .0018936
INCLINATION    = 82.5441
RA_OF_ASC_NODE = 4.3665
ARG_OF_PERICENTER = 39.0719
MEAN_ANOMALY   = 321.1861

EPHEMERIS_TYPE = 0
CLASSIFICATION_TYPE = U
NORAD_CAT_ID   = 14820
ELEMENT_SET_NO = 999
REV_AT_EPOCH   = 22873
BSTAR          = .62925E-4
MEAN_MOTION_DOT = .573E-5
MEAN_MOTION_DDOT = 0

CCSDS_OMM_VERS = 2.0
CREATION_DATE  = 
ORIGINATOR     = 

OBJECT_NAME    = SL-8 R/B
OBJECT_ID      = 1985-006B
CENTER_NAME    = EARTH
REF_FRAME      = TEME
TIME_SYSTEM    = UTC
MEAN_ELEMENT_THEORY = SGP/SGP4

EPOCH          = 2025-11-02T12:46:51.537216
MEAN_MOTION    = 14.37684317
ECCENTRICITY   = .0017476
INCLINATION    = 74.0429
RA_OF_ASC_NODE = 135.1075
ARG_OF_PERICENTER = 80.8789
MEAN_ANOMALY   = 342.4319

EPHEMERIS_TYPE = 0
CLASSIFICATION_TYPE = U
NORAD_CAT_ID   = 15483
ELEMENT_SET_NO = 999
REV_AT_EPOCH   = 13575
BSTAR          = .11856E-3
MEAN_MOTION_DOT = .331E-5
MEAN_MOTION_DDOT = 0

CCSDS_OMM_VERS = 2.0
CREATION_DATE  = 
ORIGINATOR     = 

OBJECT_NAME    = SL-12 R/B(2)
OBJECT_ID      = 1985-042D
CENTER_NAME    = EARTH
REF_FRAME      = TEME
TIME_SYSTEM    = UTC
MEAN_ELEMENT_THEORY = SGP/SGP4

EPOCH          = 2025-11-02T12:22:21.137088
MEAN_MOTION    = 14.21932556
ECCENTRICITY   = .0036778
INCLINATION    = 71.1095
RA_OF_ASC_NODE = 356.3999
ARG_OF_PERICENTER = 320.6373
MEAN_ANOMALY   = 143.9732

EPHEMERIS_TYPE = 0
CLASSIFICATION_TYPE = U
NORAD_CAT_ID   = 15772
ELEMENT_SET_NO = 999
REV_AT_EPOCH   = 9631
BSTAR          = .46726E-4
MEAN_MOTION_DOT = .56E-6
MEAN_MOTION_DDOT = 0

CCSDS_OMM_VERS = 2.0
CREATION_DATE  = 
ORIGINATOR     = 

OBJECT_NAME    = SL-14 R/B
OBJECT_ID      = 1985-069B
CENTER_NAME    = EARTH
REF_FRAME      = TEME
TIME_SYSTEM    = UTC
MEAN_ELEMENT_THEORY = SGP/SGP4

EPOCH          = 2025-11-02T12:13:27.967008
MEAN_MOTION    = 14.86253248
ECCENTRICITY   = .0017345
INCLINATION    = 82.5252
RA_OF_ASC_NODE = 144.5259
ARG_OF_PERICENTER = 252.5819
MEAN_ANOMALY   = 107.3502

EPHEMERIS_TYPE = 0
CLASSIFICATION_TYPE = U
NORAD_CAT_ID   = 15945
ELEMENT_SET_NO = 999
REV_AT_EPOCH   = 15394
BSTAR          = .6575E-4
MEAN_MOTION_DOT = .603E-5
MEAN_MOTION_DDOT = 0

CCSDS_OMM_VERS = 2.0
CREATION_DATE  = 
ORIGINATOR     = 

OBJECT_NAME    = SL-16 R/B
OBJECT_ID      = 1985-097B
CENTER_NAME    = EARTH
REF_FRAME      = TEME
TIME_SYSTEM    = UTC
MEAN_ELEMENT_THEORY = SGP/SGP4

EPOCH          = 2025-11-02T11:04:17.385312
MEAN_MOTION    = 14.16576721
ECCENTRICITY   = .0005135
INCLINATION    = 71.0044
RA_OF_ASC_NODE = 48.3977
ARG_OF_PERICENTER = 89.7106
MEAN_ANOMALY   = 342.6939

EPHEMERIS_TYPE = 0
CLASSIFICATION_TYPE = U
NORAD_CAT_ID   = 16182
ELEMENT_SET_NO = 999
REV_AT_EPOCH   = 6921
BSTAR          = .18974E-4
MEAN_MOTION_DOT = -.1E-6
MEAN_MOTION_DDOT = 0

CCSDS_OMM_VERS = 2.0
CREATION_DATE  = 
ORIGINATOR     = 

OBJECT_NAME    = SL-14 R/B
OBJECT_ID      = 1986-006B
CENTER_NAME    = EARTH
REF_FRAME      = TEME
TIME_SYSTEM    = UTC
MEAN_ELEMENT_THEORY = SGP/SGP4

EPOCH          = 2025-11-02T10:47:43.344672
MEAN_MOTION    = 14.86588201
ECCENTRICITY   = .0076154
INCLINATION    = 82.5299
RA_OF_ASC_NODE = 19.4549
ARG_OF_PERICENTER = 335.5511
MEAN_ANOMALY   = 24.2099

EPHEMERIS_TYPE = 0
CLASSIFICATION_TYPE = U
NORAD_CAT_ID   = 16496
ELEMENT_SET_NO = 999
REV_AT_EPOCH   = 13030
BSTAR          = .77031E-4
MEAN_MOTION_DOT = .745E-5
MEAN_MOTION_DDOT = 0

